NORAD_CAT_ID,OBJECT_NAME,OBJECT_TYPE,EPOCH,MEAN_MOTION,ECCENTRICITY,INCLINATION,RA_OF_ASC_NODE,ARG_OF_PERICENTER,MEAN_ANOMALY,BSTAR,MEAN_MOTION_DOT,MEAN_MOTION_DDOT,TLE_LINE0,TLE_LINE1,TLE_LINE2,SEMIMAJOR_AXIS,PERIOD,APOGEE,PERIGEE,DECAYED
52131.0,STARLINK-3711,PAYLOAD,2022-09-26 15:45:19,15.08836307,0.0001628,53.219,325.6241,58.5222,301.5929,-0.00010369,-1.938e-05,0.0,0 STARLINK-3711,1 52131U 22029AV  22269.65647442 -.00001938  00000-0 -10369-3 0  9991,2 52131  53.2190 325.6241 0001628  58.5222 301.5929 15.08836307 30719,6917.892,95.438,540.883,538.63,0.0
52131.0,STARLINK-3711,PAYLOAD,2022-09-27 09:14:33,15.08832791,0.000158,53.2194,322.3528,60.3424,299.7725,2.9655e-06,-2.41e-06,0.0,0 STARLINK-3711,1 52131U 22029AV  22270.38511454 -.00000241  00000-0  29655-5 0  9991,2 52131  53.2194 322.3528 0001580  60.3424 299.7725 15.08832791 30824,6917.901999999999,95.438,540.86,538.674,0.0
52131.0,STARLINK-3711,PAYLOAD,2022-09-28 10:40:43,15.08843808,0.0001683,53.2198,317.5948,51.9272,308.1872,0.0001329,1.828e-05,0.0,0 STARLINK-3711,1 52131U 22029AV  22271.44494656  .00001828  00000-0  13290-3 0  9990,2 52131  53.2198 317.5948 0001683  51.9272 308.1872 15.08843808 30987,6917.869000000002,95.437,540.898,538.569,0.0
52131.0,STARLINK-3711,PAYLOAD,2022-09-29 10:31:32,15.08816384,0.0001443999999999,53.2193,313.135,55.129,304.9837,-0.00012213,-2.23e-05,0.0,0 STARLINK-3711,1 52131U 22029AV  22272.43857201 -.00002230  00000-0 -12213-3 0  9993,2 52131  53.2193 313.1350 0001444  55.1290 304.9837 15.08816384 31134,6917.953,95.439,540.817,538.819,0.0
52131.0,STARLINK-3711,PAYLOAD,2022-09-29 20:03:51,15.08817878,0.000159,53.22,311.3518,54.5972,305.5168,-0.00015134,-2.694e-05,0.0,0 STARLINK-3711,1 52131U 22029AV  22272.83601752 -.00002694  00000-0 -15134-3 0  9994,2 52131  53.2200 311.3518 0001590  54.5972 305.5168 15.08817878 31190,6917.948,95.439,540.913,538.7130000000002,0.0
52131.0,STARLINK-3711,PAYLOAD,2022-09-30 11:57:42,15.08837708,0.0001585999999999,53.2189,308.3768,52.0308,308.0827,-8.582e-05,-1.653e-05,0.0,0 STARLINK-3711,1 52131U 22029AV  22273.49840877 -.00001653  00000-0 -85820-4 0  9994,2 52131  53.2189 308.3768 0001586  52.0308 308.0827 15.08837708 31295,6917.887,95.438,540.85,538.655,0.0
52131.0,STARLINK-3711,PAYLOAD,2022-09-30 19:54:37,15.08848405,0.0001868,53.2195,306.894,47.3724,312.7426,5.2732e-05,5.51e-06,0.0,0 STARLINK-3711,1 52131U 22029AV  22273.82959821  .00000551  00000-0  52732-4 0  9991,2 52131  53.2195 306.8940 0001868  47.3724 312.7426 15.08848405 31348,6917.855,95.437,541.012,538.427,0.0
52131.0,STARLINK-3711,PAYLOAD,2022-10-01 02:16:09,15.08846384,0.0002191999999999,53.2187,305.7052,36.0002,324.1137,0.00015669,2.207e-05,0.0,0 STARLINK-3711,1 52131U 22029AV  22274.09455407  .00002207  00000-0  15669-3 0  9999,2 52131  53.2187 305.7052 0002192  36.0002 324.1137 15.08846384 31380,6917.861,95.437,541.242,538.2090000000002,0.0
52131.0,STARLINK-3711,PAYLOAD,2022-10-01 11:48:28,15.08833537,0.0001554,53.2191,303.9171,49.7586,310.3542,0.00018553,2.665e-05,0.0,0 STARLINK-3711,1 52131U 22029AV  22274.49200050  .00002665  00000-0  18553-3 0  9998,2 52131  53.2191 303.9171 0001554  49.7586 310.3542 15.08833537 31446,6917.9,95.438,540.84,538.69,0.0
52131.0,STARLINK-3711,PAYLOAD,2022-10-02 08:28:31,15.08822251,0.0001703,53.2194,300.0518,54.1051,306.0099,-1.9117e-05,-5.92e-06,0.0,0 STARLINK-3711,1 52131U 22029AV  22275.35313743 -.00000592  00000-0 -19117-4 0  9995,2 52131  53.2194 300.0518 0001703  54.1051 306.0099 15.08822251 31579,6917.935,95.439,540.9780000000002,538.622,0.0
52131.0,STARLINK-3711,PAYLOAD,2022-10-03 05:08:30,15.08843851,0.0001706,53.2181,296.1853,47.0663,313.0472,-6.4602e-05,-1.316e-05,0.0,0 STARLINK-3711,1 52131U 22029AV  22276.21424611 -.00001316  00000-0 -64602-4 0  9992,2 52131  53.2181 296.1853 0001706  47.0663 313.0472 15.08843851 31702,6917.869000000002,95.437,540.914,538.553,0.0
52131.0,STARLINK-3711,PAYLOAD,2022-10-03 11:30:02,15.08848895,0.0001747,53.2183,294.9956,50.8217,309.293,3.0737e-05,2.01e-06,0.0,0 STARLINK-3711,1 52131U 22029AV  22276.47919840  .00000201  00000-0  30737-4 0  9995,2 52131  53.2183 294.9956 0001747  50.8217 309.2930 15.08848895 31749,6917.853,95.437,540.927,538.51,0.0
52131.0,STARLINK-3711,PAYLOAD,2022-10-04 08:10:03,15.08841555,0.000177,53.2187,291.1307,48.5575,311.5569,1.4537e-06,-2.65e-06,0.0,0 STARLINK-3711,1 52131U 22029AV  22277.34031929 -.00000265  00000-0  14537-5 0  9997,2 52131  53.2187 291.1307 0001770  48.5575 311.5569 15.08841555 31873,6917.876,95.437,540.965,538.516,0.0
52131.0,STARLINK-3711,PAYLOAD,2022-10-04 17:42:22,15.08839495,0.0001813,53.219,289.3467,47.9931,312.1215,6.4223e-05,7.34e-06,0.0,0 STARLINK-3711,1 52131U 22029AV  22277.73775745  .00000734  00000-0  64223-4 0  9997,2 52131  53.2190 289.3467 0001813  47.9931 312.1215 15.08839495 31932,6917.882,95.438,541.001,538.493,0.0
52131.0,STARLINK-3711,PAYLOAD,2022-10-05 04:50:05,15.08833763,0.0001837,53.2189,287.2635,50.5658,309.5496,-0.00014775,-2.638e-05,0.0,0 STARLINK-3711,1 52131U 22029AV  22278.20144979 -.00002638  00000-0 -14775-3 0  9992,2 52131  53.2189 287.2635 0001837  50.5658 309.5496 15.08833763 32008,6917.899,95.438,541.035,538.494,0.0
52131.0,STARLINK-3711,PAYLOAD,2022-10-05 11:11:37,15.08842644,0.0001730999999999,53.2174,286.0734,43.3555,316.7573,-0.00023197,-3.978e-05,0.0,0 STARLINK-3711,1 52131U 22029AV  22278.46640630 -.00003978  00000-0 -23197-3 0  9991,2 52131  53.2174 286.0734 0001731  43.3555 316.7573 15.08842644 32046,6917.871999999999,95.437,540.935,538.54,0.0
52131.0,STARLINK-3711,PAYLOAD,2022-10-06 07:51:38,15.08835734,0.0001779,53.2182,282.2091,48.7794,311.3351,-3.89e-05,-9.07e-06,0.0,0 STARLINK-3711,1 52131U 22029AV  22279.32752481 -.00000907  00000-0 -38900-4 0  9993,2 52131  53.2182 282.2091 0001779  48.7794 311.3351 15.08835734 32176,6917.893,95.438,540.989,538.528,0.0
52131.0,STARLINK-3711,PAYLOAD,2022-10-06 17:23:56,15.08843473,0.0001754999999999,53.2187,280.425,53.0266,307.0886,2.2454e-05,6.9e-07,0.0,0 STARLINK-3711,1 52131U 22029AV  22279.72495773  .00000069  00000-0  22454-4 0  9999,2 52131  53.2187 280.4250 0001755  53.0266 307.0886 15.08843473 32236,6917.87,95.437,540.9490000000002,538.521,0.0
52131.0,STARLINK-3711,PAYLOAD,2022-10-07 07:42:24,15.08836016,0.0001686999999999,53.2185,277.7495,52.0179,308.0965,0.00013914,1.927e-05,0.0,0 STARLINK-3711,1 52131U 22029AV  22280.32111756  .00001927  00000-0  13914-3 0  9997,2 52131  53.2185 277.7495 0001687  52.0179 308.0965 15.08836016 32324,6917.893,95.438,540.925,538.591,0.0
52131.0,STARLINK-3711,PAYLOAD,2022-10-07 17:14:43,15.08816433,0.0001759,53.2182,275.9654,61.7518,298.3651,0.00043612,6.655e-05,0.0,0 STARLINK-3711,1 52131U 22029AV  22280.71856138  .00006655  00000-0  43612-3 0  9991,2 52131  53.2182 275.9654 0001759  61.7518 298.3651 15.08816433 32382,6917.9519999999975,95.439,541.034,538.601,0.0
52131.0,STARLINK-3711,PAYLOAD,2022-10-08 04:22:25,15.08856268,0.0001606,53.219,273.8838,48.7574,311.3556,-0.00021204,-3.663e-05,0.0,0 STARLINK-3711,1 52131U 22029AV  22281.18223747 -.00003663  00000-0 -21204-3 0  9998,2 52131  53.2190 273.8838 0001606  48.7574 311.3556 15.08856268 32458,6917.831,95.437,540.807,538.585,0.0
52131.0,STARLINK-3711,PAYLOAD,2022-10-08 09:08:35,15.08826345,0.0001766,53.2179,272.992,54.1502,305.9654,-8.200799999999999e-05,-1.593e-05,0.0,0 STARLINK-3711,1 52131U 22029AV  22281.38097084 -.00001593  00000-0 -82008-4 0  9993,2 52131  53.2179 272.9920 0001766  54.1502 305.9654 15.08826345 32480,6917.922,95.438,541.009,538.565,0.0
52131.0,STARLINK-3711,PAYLOAD,2022-10-08 17:05:31,15.0883552,0.0001776,53.2195,271.5055,55.4437,304.6722,-7.3167e-05,-1.452e-05,0.0,0 STARLINK-3711,1 52131U 22029AV  22281.71216571 -.00001452  00000-0 -73167-4 0  9994,2 52131  53.2195 271.5055 0001776  55.4437 304.6722 15.08835520 32537,6917.894,95.438,540.988,538.53,0.0
52131.0,STARLINK-3711,PAYLOAD,2022-10-09 08:59:22,15.08837564,0.0001721999999999,53.2186,268.531,57.0796,303.0362,-5.4634e-05,-1.157e-05,0.0,0 STARLINK-3711,1 52131U 22029AV  22282.37456434 -.00001157  00000-0 -54634-4 0  9991,2 52131  53.2186 268.5310 0001722  57.0796 303.0362 15.08837564 32638,6917.888000000001,95.438,540.944,538.562,0.0
52131.0,STARLINK-3711,PAYLOAD,2022-10-10 04:03:58,15.08847358,0.0001807,53.2189,264.9632,57.0792,303.0374,7.350899999999999e-05,8.82e-06,0.0,0 STARLINK-3711,1 52131U 22029AV  22283.16943166  .00000882  00000-0  73509-4 0  9996,2 52131  53.2189 264.9632 0001807  57.0792 303.0374 15.08847358 32756,6917.858,95.437,540.9730000000002,538.4730000000002,0.0
52131.0,STARLINK-3711,PAYLOAD,2022-10-10 07:14:45,15.08835285,0.0001699,53.2174,264.3687,54.8978,305.2173,0.0001361999999999,1.88e-05,0.0,0 STARLINK-3711,1 52131U 22029AV  22283.30191584  .00001880  00000-0  13620-3 0  9997,2 52131  53.2174 264.3687 0001699  54.8978 305.2173 15.08835285 32773,6917.895,95.438,540.935,538.5840000000002,0.0
52131.0,STARLINK-3711,PAYLOAD,2022-10-11 07:05:33,15.08832586,0.0001704,53.2188,259.9084,55.4005,304.7147,-1.4373e-05,-5.17e-06,0.0,0 STARLINK-3711,1 52131U 22029AV  22284.29552491 -.00000517  00000-0 -14373-4 0  9999,2 52131  53.2188 259.9084 0001704  55.4005 304.7147 15.08832586 32927,6917.903,95.438,540.947,538.589,0.0
52131.0,STARLINK-3711,PAYLOAD,2022-10-12 08:31:44,15.08830693,0.0001625,53.219,255.1505,59.0729,301.0423,-0.00014643,-2.617e-05,0.0,0 STARLINK-3711,1 52131U 22029AV  22285.35537262 -.00002617  00000-0 -14643-3 0  9998,2 52131  53.2190 255.1505 0001625  59.0729 301.0423 15.08830693 33083,6917.909000000002,95.438,540.898,538.65,0.0
52131.0,STARLINK-3711,PAYLOAD,2022-10-12 21:14:49,15.08822998,0.0001603,53.2192,252.7716,57.3377,302.777,-6.296100000000001e-05,-1.289e-05,0.0,0 STARLINK-3711,1 52131U 22029AV  22285.88529773 -.00001289  00000-0 -62961-4 0  9995,2 52131  53.2192 252.7716 0001603  57.3377 302.7770 15.08822998 33169,6917.932,95.439,540.906,538.688,0.0
